OBJECT_NAME,OBJECT_ID,EPOCH,MEAN_MOTION,ECCENTRICITY,INCLINATION,RA_OF_ASC_NODE,ARG_OF_PERICENTER,MEAN_ANOMALY,EPHEMERIS_TYPE,CLASSIFICATION_TYPE,NORAD_CAT_ID,ELEMENT_SET_NO,REV_AT_EPOCH,BSTAR,MEAN_MOTION_DOT,MEAN_MOTION_DDOT
ONEWEB-0012,2019-010A,2026-07-11T11:54:30.771072,13.16593587,.0001622,87.9072,223.9561,90.1422,269.9894,0,U,44057,999,35476,-.18174E-3,-.57E-6,0
ONEWEB-0010,2019-010B,2026-07-11T12:31:00.979104,13.16593249,.0002125,87.9066,223.9465,99.7334,260.4037,0,U,44058,999,35481,.29308E-3,.125E-5,0
ONEWEB-0008,2019-010C,2026-07-11T11:18:03.273408,13.16593244,.0002187,87.9076,223.9531,87.6618,272.4763,0,U,44059,999,35492,.84927E-4,.45E-6,0
ONEWEB-0007,2019-010D,2026-07-10T03:44:59.668224,13.15548016,.00019015,87.8983,254.6452,107.2957,252.8381,0,U,44060,999,35439,.26266526E-3,.112E-5,0
ONEWEB-0006,2019-010E,2026-07-11T03:34:28.898112,13.15550252,.0002128,87.9001,254.4139,97.8480,262.2892,0,U,44061,999,35457,.3375E-3,.14E-5,0
ONEWEB-0011,2019-010F,2026-07-10T03:05:02.865696,13.15549245,.00023205,87.8982,254.6268,98.1277,262.0117,0,U,44062,999,35443,-.36033471E-3,-.123E-5,0
ONEWEB-0013,2020-008A,2026-07-11T13:04:54.327072,13.09457257,.0001073,87.8494,47.9082,52.6688,307.4537,0,U,45131,999,30925,-.19676E-2,-.665E-5,0
ONEWEB-0017,2020-008B,2026-07-11T12:15:08.768160,13.10376283,.0001981,87.8819,31.4209,92.5370,267.5984,0,U,45132,999,31113,-.15805E-2,-.539E-5,0
ONEWEB-0020,2020-008C,2026-07-11T11:31:09.427872,13.10369214,.0001826,87.8813,31.4260,84.3321,275.8015,0,U,45133,999,31152,.80786E-3,.295E-5,0
ONEWEB-0021,2020-008D,2026-07-11T11:53:07.053792,13.10369806,.000173,87.8811,31.4384,88.7379,271.3946,0,U,45134,999,31183,-.13071E-2,-.444E-5,0
ONEWEB-0023,2020-008F,2026-07-11T12:09:00.027648,13.10372023,.0001824,87.8823,31.4198,81.2860,278.8474,0,U,45136,999,31126,-.17315E-2,-.592E-5,0
ONEWEB-0024,2020-008G,2026-07-11T11:28:54.045120,13.10369214,.0001859,87.8823,31.4184,91.2201,268.9139,0,U,45137,999,31142,.10456E-2,.378E-5,0
ONEWEB-0025,2020-008H,2026-07-11T11:28:30.665280,13.10369394,.0002378,87.8818,31.4089,65.9596,294.1780,0,U,45138,999,31175,.10663E-2,.385E-5,0
ONEWEB-0026,2020-008J,2026-07-11T11:56:01.890240,13.11417259,.0001984,87.8877,16.2265,91.6338,268.5017,0,U,45139,999,31429,.15131E-2,.549E-5,0
ONEWEB-0028,2020-008K,2026-07-11T11:20:36.885696,13.11417588,.0001303,87.8870,16.2379,77.7239,282.4035,0,U,45140,999,31180,-.11026E-2,-.378E-5,0
ONEWEB-0032,2020-008L,2026-07-11T12:17:46.957056,13.10375379,.0001586,87.8813,31.4233,72.2491,287.8809,0,U,45141,999,31148,-.13696E-2,-.465E-5,0
ONEWEB-0033,2020-008M,2026-07-11T11:40:55.008192,13.10368707,.0002249,87.8802,31.4341,96.5741,263.5642,0,U,45142,999,31139,-.19146E-3,-.54E-6,0
ONEWEB-0035,2020-008N,2026-07-11T12:10:27.181920,13.10377448,.0001821,87.8810,31.4233,88.1012,272.0324,0,U,45143,999,31112,-.1754E-2,-.6E-5,0
ONEWEB-0036,2020-008P,2026-07-11T11:38:19.335264,13.10368269,.0001706,87.8825,31.4442,80.3080,279.8240,0,U,45144,999,31154,.98837E-3,.358E-5,0
ONEWEB-0038,2020-008Q,2026-07-11T12:10:52.707072,13.11415639,.0001708,87.8876,16.2363,148.4619,211.6611,0,U,45145,999,31351,.13329E-2,.485E-5,0
ONEWEB-0039,2020-008R,2026-07-11T11:45:48.441600,13.10371230,.0001301,87.8812,31.4241,75.0469,285.0802,0,U,45146,999,31134,-.39505E-3,-.125E-5,0
ONEWEB-0040,2020-008S,2026-07-11T11:36:01.502208,13.10368706,.0001907,87.8810,31.4360,77.2632,282.8709,0,U,45147,999,31104,.37002E-3,.142E-5,0
ONEWEB-0043,2020-008U,2026-07-11T11:38:41.114112,13.10371620,.0001348,87.8813,31.4236,79.2350,280.8929,0,U,45149,999,31136,.1467E-3,.64E-6,0
ONEWEB-0044,2020-008V,2026-07-11T12:20:02.172192,13.10377544,.0001719,87.8849,31.4204,83.0215,277.1108,0,U,45150,999,31166,-.10831E-2,-.365E-5,0
ONEWEB-0045,2020-008W,2026-07-11T12:03:21.349152,13.11416436,.0001699,87.8883,16.2191,90.1216,270.0106,0,U,45151,999,31359,.1582E-2,.573E-5,0
ONEWEB-0047,2020-008X,2026-07-11T12:10:01.514208,13.10372768,.0001851,87.8825,31.4215,94.1121,266.0218,0,U,45152,999,31138,-.18083E-2,-.619E-5,0
ONEWEB-0048,2020-008Y,2026-07-11T12:02:55.078368,13.10369245,.0001697,87.8836,31.4440,85.0623,275.0698,0,U,45153,999,31099,.81843E-3,.298E-5,0
ONEWEB-0049,2020-008Z,2026-07-11T12:07:34.343040,13.10372220,.0001963,87.8815,31.4299,75.3352,284.7993,0,U,45154,999,31121,-.17818E-2,-.609E-5,0
ONEWEB-0051,2020-008AA,2026-07-11T12:00:55.175040,13.11417747,.000184,87.8882,16.2256,88.8617,271.2722,0,U,45155,999,31427,.16941E-2,.613E-5,0
ONEWEB-0052,2020-008AB,2026-07-11T12:37:21.353376,13.10377769,.0001882,87.8817,31.4136,73.5454,286.5880,0,U,45156,999,31112,.43679E-3,.165E-5,0
ONEWEB-0053,2020-008AC,2026-07-11T11:33:35.476704,13.10368909,.0001573,87.8805,31.4418,73.2616,286.8684,0,U,45157,999,31109,.35991E-3,.138E-5,0
