ONEWEB-0012             
1 44057U 19010A   26192.49618948 -.00000057  00000+0 -18174-3 0  9997
2 44057  87.9072 223.9561 0001622  90.1422 269.9894 13.16593587354762
ONEWEB-0010             
1 44058U 19010B   26192.52153911  .00000125  00000+0  29308-3 0  9991
2 44058  87.9066 223.9465 0002125  99.7334 260.4037 13.16593249354811
ONEWEB-0008             
1 44059U 19010C   26192.47087122  .00000045  00000+0  84927-4 0  9996
2 44059  87.9076 223.9531 0002187  87.6618 272.4763 13.16593244354922
ONEWEB-0007             
1 44060U 19010D   26191.15624616  .00000112  00000+0  26267-3 0  9994
2 44060  87.8983 254.6452 0001901 107.2957 252.8381 13.15548016354396
ONEWEB-0006             
1 44061U 19010E   26192.14894558  .00000140  00000+0  33750-3 0  9995
2 44061  87.9001 254.4139 0002128  97.8480 262.2892 13.15550252354573
ONEWEB-0011             
1 44062U 19010F   26191.12850539 -.00000123  00000+0 -36033-3 0  9994
2 44062  87.8982 254.6268 0002320  98.1277 262.0117 13.15549245354431
ONEWEB-0013             
1 45131U 20008A   26192.54507323 -.00000665  00000+0 -19676-2 0  9992
2 45131  87.8494  47.9082 0001073  52.6688 307.4537 13.09457257309253
ONEWEB-0017             
1 45132U 20008B   26192.51051815 -.00000539  00000+0 -15805-2 0  9990
2 45132  87.8819  31.4209 0001981  92.5370 267.5984 13.10376283311136
ONEWEB-0020             
1 45133U 20008C   26192.47997023  .00000295  00000+0  80786-3 0  9994
2 45133  87.8813  31.4260 0001826  84.3321 275.8015 13.10369214311527
ONEWEB-0021             
1 45134U 20008D   26192.49522053 -.00000444  00000+0 -13071-2 0  9994
2 45134  87.8811  31.4384 0001730  88.7379 271.3946 13.10369806311833
ONEWEB-0023             
1 45136U 20008F   26192.50625032 -.00000592  00000+0 -17315-2 0  9998
2 45136  87.8823  31.4198 0001824  81.2860 278.8474 13.10372023311268
ONEWEB-0024             
1 45137U 20008G   26192.47840330  .00000378  00000+0  10456-2 0  9994
2 45137  87.8823  31.4184 0001859  91.2201 268.9139 13.10369214311426
ONEWEB-0025             
1 45138U 20008H   26192.47813270  .00000385  00000+0  10663-2 0  9996
2 45138  87.8818  31.4089 0002378  65.9596 294.1780 13.10369394311755
ONEWEB-0026             
1 45139U 20008J   26192.49724410  .00000549  00000+0  15131-2 0  9993
2 45139  87.8877  16.2265 0001984  91.6338 268.5017 13.11417259314295
ONEWEB-0028             
1 45140U 20008K   26192.47264914 -.00000378  00000+0 -11026-2 0  9992
2 45140  87.8870  16.2379 0001303  77.7239 282.4035 13.11417588311800
ONEWEB-0032             
1 45141U 20008L   26192.51234904 -.00000465  00000+0 -13696-2 0  9996
2 45141  87.8813  31.4233 0001586  72.2491 287.8809 13.10375379311481
ONEWEB-0033             
1 45142U 20008M   26192.48674778 -.00000054  00000+0 -19146-3 0  9991
2 45142  87.8802  31.4341 0002249  96.5741 263.5642 13.10368707311397
ONEWEB-0035             
1 45143U 20008N   26192.50725905 -.00000600  00000+0 -17540-2 0  9996
2 45143  87.8810  31.4233 0001821  88.1012 272.0324 13.10377448311125
ONEWEB-0036             
1 45144U 20008P   26192.48494601  .00000358  00000+0  98837-3 0  9997
2 45144  87.8825  31.4442 0001706  80.3080 279.8240 13.10368269311544
ONEWEB-0038             
1 45145U 20008Q   26192.50755448  .00000485  00000+0  13329-2 0  9993
2 45145  87.8876  16.2363 0001708 148.4619 211.6611 13.11415639313510
ONEWEB-0039             
1 45146U 20008R   26192.49014400 -.00000125  00000+0 -39505-3 0  9996
2 45146  87.8812  31.4241 0001301  75.0469 285.0802 13.10371230311345
ONEWEB-0040             
1 45147U 20008S   26192.48335072  .00000142  00000+0  37002-3 0  9994
2 45147  87.8810  31.4360 0001907  77.2632 282.8709 13.10368706311046
ONEWEB-0043             
1 45149U 20008U   26192.48519808  .00000064  00000+0  14670-3 0  9996
2 45149  87.8813  31.4236 0001348  79.2350 280.8929 13.10371620311367
ONEWEB-0044             
1 45150U 20008V   26192.51391403 -.00000365  00000+0 -10831-2 0  9991
2 45150  87.8849  31.4204 0001719  83.0215 277.1108 13.10377544311660
ONEWEB-0045             
1 45151U 20008W   26192.50233043  .00000573  00000+0  15820-2 0  9998
2 45151  87.8883  16.2191 0001699  90.1216 270.0106 13.11416436313591
ONEWEB-0047             
1 45152U 20008X   26192.50696197 -.00000619  00000+0 -18083-2 0  9999
2 45152  87.8825  31.4215 0001851  94.1121 266.0218 13.10372768311385
ONEWEB-0048             
1 45153U 20008Y   26192.50202637  .00000298  00000+0  81843-3 0  9998
2 45153  87.8836  31.4440 0001697  85.0623 275.0698 13.10369245310996
ONEWEB-0049             
1 45154U 20008Z   26192.50525860 -.00000609  00000+0 -17818-2 0  9993
2 45154  87.8815  31.4299 0001963  75.3352 284.7993 13.10372220311211
ONEWEB-0051             
1 45155U 20008AA  26192.50063860  .00000613  00000+0  16941-2 0  9990
2 45155  87.8882  16.2256 0001840  88.8617 271.2722 13.11417747314272
ONEWEB-0052             
1 45156U 20008AB  26192.52594159  .00000165  00000+0  43679-3 0  9994
2 45156  87.8817  31.4136 0001882  73.5454 286.5880 13.10377769311126
ONEWEB-0053             
1 45157U 20008AC  26192.48166061  .00000138  00000+0  35991-3 0  9995
2 45157  87.8805  31.4418 0001573  73.2616 286.8684 13.10368909311098
